SAUDISAT 1C (SO-50)     
1 27607U 02058C   26196.00432816  .00000376  00000+0  62404-4 0  9990
2 27607  64.5518  42.9159 0074537 257.3021 101.9746 14.83098196268585
SAUDISAT 2              
1 28371U 04025F   26195.98537941  .00000100  00000+0  33486-4 0  9999
2 28371  98.5520 196.6871 0024056 208.8633 151.1235 14.56698195169791
SAUDISAT 3              
1 31118U 07012B   26195.86745013  .00000097  00000+0  23874-4 0  9994
2 31118  98.1467 146.2884 0015574 135.6886 224.5570 14.71440220 31816
PISAT                   
1 41784U 16059B   26196.00285973  .00000453  00000+0  84679-4 0  9992
2 41784  97.8191 195.2619 0030441 115.4250 245.0112 14.69029521523828
FLYING LAPTOP           
1 42831U 17042G   26196.18006898  .00001807  00000+0  14435-3 0  9991
2 42831  97.4801 350.6592 0019704  32.5803 327.6633 15.01312154490658
SALSAT                  
1 46495U 20068K   26196.00653126  .00004157  00000+0  14518-3 0  9999
2 46495  97.8854 200.7735 0009152 193.6321 166.4672 15.30170520319613
